COSMOS 2425 (716)       
1 29670U 06062A   21140.56683003 -.00000006  00000-0  00000+0 0  9993
2 29670  64.8505 256.3900 0023843 345.6389  10.2977  2.13115408112079
COSMOS 2433 (720)       
1 32275U 07052A   21140.57757519 -.00000052  00000-0  00000-0 0  9995
2 32275  66.0551  17.7084 0001199 289.0703 250.2048  2.13104497105592
COSMOS 2432 (719)       
1 32276U 07052B   21141.58243891 -.00000050  00000-0  00000-0 0  9999
2 32276  66.0693  17.7715 0010753 337.8955 201.6268  2.13103588105615
COSMOS 2434 (721)       
1 32393U 07065A   21141.39667333 -.00000010  00000-0  00000-0 0  9999
2 32393  64.4688 254.8319 0003684  93.9503 242.0208  2.13103136104317
COSMOS 2436 (723)       
1 32395U 07065C   21141.28469796 -.00000009  00000-0  00000-0 0  9990
2 32395  64.4785 254.8886 0014581   3.2372  22.9415  2.13103097104256
COSMOS 2456 (730)       
1 36111U 09070A   21141.28536269  .00000112  00000-0  00000-0 0  9992
2 36111  64.2741 134.5147 0006291 304.0974 117.3782  2.13099303 88980
COSMOS 2457 (733)       
1 36112U 09070B   21141.28003073  .00000112  00000-0  00000-0 0  9995
2 36112  64.2561 134.4005 0004493 198.0057 343.5492  2.13101548 88984
COSMOS 2459 (731)       
1 36400U 10007A   21141.26535745 -.00000050  00000-0  00000-0 0  9993
2 36400  65.9548  16.6157 0026287 351.4480 212.5170  2.13108277 87327
COSMOS 2461 (735)       
1 36401U 10007B   21141.26508725 -.00000050  00000-0  00000-0 0  9992
2 36401  65.9491  16.5806 0021572   9.9344 194.7492  2.13103880 87335
COSMOS 2460 (732)       
1 36402U 10007C   21141.23224693 -.00000050  00000-0  00000-0 0  9999
2 36402  65.9365  16.5386 0002042  39.3851  84.6281  2.13106546 87335
COSMOS 2464 (736)       
1 37139U 10041C   21141.55336417 -.00000010  00000-0  00000-0 0  9994
2 37139  64.0680 254.0970 0027736  12.0819 305.2143  2.13100754 83396
COSMOS 2471 (701K)      
1 37372U 11009A   21140.33804829 -.00000052  00000-0  00000+0 0  9995
2 37372  65.9323  16.4994 0014444 228.5133  85.4094  2.13051758 79587
COSMOS 2476 (744)       
1 37867U 11064A   21141.35772662  .00000114  00000-0  00000-0 0  9996
2 37867  64.5677 135.7141 0022390 242.2070 136.9144  2.13101896 74339
COSMOS 2477 (745)       
1 37868U 11064B   21141.26991649  .00000114  00000-0  00000-0 0  9995
2 37868  64.5764 135.7767 0019882 243.7993 246.2892  2.13101807 74284
COSMOS 2475 (743)       
1 37869U 11064C   21141.27546215  .00000114  00000-0  00000-0 0  9992
2 37869  64.5818 135.7850 0024343 260.9777 191.0191  2.13102036 74292
COSMOS 2485 (747)       
1 39155U 13019A   21141.30935977  .00000114  00000-0  00000-0 0  9995
2 39155  64.7338 136.0592 0022700 238.0670 148.4168  2.13101942 62800
COSMOS 2492 (754)       
1 39620U 14012A   21141.47229248 -.00000050  00000-0  00000-0 0  9991
2 39620  65.8251  16.2671 0013745 332.1192 214.2022  2.13103235 55758
COSMOS 2500 (755)       
1 40001U 14032A   21140.98775449 -.00000051  00000-0  00000-0 0  9993
2 40001  65.7635  16.1742 0004415 197.5077 196.8060  2.13102569 53962
COSMOS 2501 (702K)      
1 40315U 14075A   21141.30644956 -.00000010  00000-0  00000-0 0  9998
2 40315  63.7812 254.9235 0017063 207.8734 237.1684  2.13101459 50372
COSMOS 2514 (751)       
1 41330U 16008A   21141.41011376 -.00000050  00000-0  00000-0 0  9994
2 41330  65.5677  15.9479 0008052 212.8557 328.5593  2.13102946 41131
COSMOS 2516 (753)       
1 41554U 16032A   21141.31416446 -.00000010  00000-0  00000-0 0  9991
2 41554  64.0059 255.0891 0013237 213.9670 148.4474  2.13107013 38741
COSMOS 2522 (752)       
1 42939U 17055A   21141.48477301 -.00000010  00000-0  00000-0 0  9990
2 42939  64.2380 255.3630 0006712 241.8276 115.0568  2.13101924 28494
COSMOS 2527 (756)       
1 43508U 18053A   21141.34587626  .00000115  00000-0  00000-0 0  9994
2 43508  64.8993 135.9761 0009471 243.8019  38.6022  2.13102613 22780
COSMOS 2529 (757)       
1 43687U 18086A   21141.65109022 -.00000011  00000-0  00000-0 0  9998
2 43687  64.4529 255.5686 0009057 267.4136 172.6273  2.13102319 19816
COSMOS 2534 (758)       
1 44299U 19030A   21141.36427178 -.00000010  00000-0  00000-0 0  9990
2 44299  64.5270 255.4272 0011636 290.2857  64.5560  2.13102027 15449
COSMOS 2544 (759)       
1 44850U 19088A   21141.45224736  .00000114  00000-0  00000-0 0  9995
2 44850  64.8824 135.8334 0014283 266.6659 141.1276  2.13102364 11231
COSMOS 2545 (760)       
1 45358U 20018A   21141.39900551 -.00000052  00000-0  00000-0 0  9995
2 45358  64.8993  16.8794 0007238 257.5392 319.4489  2.13102787  9170
